{"fetched_at":"2026-07-23T07:05:44.990Z","source":"https://celestrak.org/NORAD/elements/gp.php?NAME=HULIANWANG&FORMAT=JSON","constellation":"guowang","records":[{"OBJECT_NAME":"HULIANWANG DIGUI-28","OBJECT_ID":"2025-086J","EPOCH":"2026-07-22T21:39:43.903008","CLASSIFICATION_TYPE":"U","MEAN_MOTION":13.24411374,"ECCENTRICITY":0.00022157,"INCLINATION":86.5019,"RA_OF_ASC_NODE":300.8998,"ARG_OF_PERICENTER":109.1257,"MEAN_ANOMALY":251.0118,"EPHEMERIS_TYPE":0,"NORAD_CAT_ID":63695,"ELEMENT_SET_NO":999,"REV_AT_EPOCH":5958,"BSTAR":0.000098807294,"MEAN_MOTION_DOT":5.7e-7,"MEAN_MOTION_DDOT":0},{"OBJECT_NAME":"HULIANWANG DIGUI-29","OBJECT_ID":"2025-086K","EPOCH":"2026-07-22T21:28:53.916672","CLASSIFICATION_TYPE":"U","MEAN_MOTION":13.24411717,"ECCENTRICITY":0.00021028,"INCLINATION":86.5046,"RA_OF_ASC_NODE":301.02,"ARG_OF_PERICENTER":112.0804,"MEAN_ANOMALY":248.0553,"EPHEMERIS_TYPE":0,"NORAD_CAT_ID":63696,"ELEMENT_SET_NO":999,"REV_AT_EPOCH":5958,"BSTAR":0.000060165505,"MEAN_MOTION_DOT":4e-7,"MEAN_MOTION_DDOT":0},{"OBJECT_NAME":"HULIANWANG DIGUI-30","OBJECT_ID":"2025-121A","EPOCH":"2026-07-22T21:39:37.551744","CLASSIFICATION_TYPE":"U","MEAN_MOTION":13.24409727,"ECCENTRICITY":0.00018801,"INCLINATION":86.5004,"RA_OF_ASC_NODE":1.5049,"ARG_OF_PERICENTER":89.3263,"MEAN_ANOMALY":270.8086,"EPHEMERIS_TYPE":0,"NORAD_CAT_ID":64283,"ELEMENT_SET_NO":999,"REV_AT_EPOCH":5488,"BSTAR":0.000058683277,"MEAN_MOTION_DOT":4e-7,"MEAN_MOTION_DDOT":0},{"OBJECT_NAME":"HULIANWANG DIGUI-31","OBJECT_ID":"2025-121B","EPOCH":"2026-07-22T21:28:46.830144","CLASSIFICATION_TYPE":"U","MEAN_MOTION":13.24414665,"ECCENTRICITY":0.0001883,"INCLINATION":86.5025,"RA_OF_ASC_NODE":1.5856,"ARG_OF_PERICENTER":89.4903,"MEAN_ANOMALY":270.6447,"EPHEMERIS_TYPE":0,"NORAD_CAT_ID":64284,"ELEMENT_SET_NO":999,"REV_AT_EPOCH":5488,"BSTAR":0.000024806276,"MEAN_MOTION_DOT":2.5e-7,"MEAN_MOTION_DDOT":0},{"OBJECT_NAME":"HULIANWANG DIGUI-32","OBJECT_ID":"2025-121C","EPOCH":"2026-07-22T21:17:43.724832","CLASSIFICATION_TYPE":"U","MEAN_MOTION":13.24410583,"ECCENTRICITY":0.00018911,"INCLINATION":86.4966,"RA_OF_ASC_NODE":1.3386,"ARG_OF_PERICENTER":93.898,"MEAN_ANOMALY":266.237,"EPHEMERIS_TYPE":0,"NORAD_CAT_ID":64285,"ELEMENT_SET_NO":999,"REV_AT_EPOCH":5488,"BSTAR":0.000030546025,"MEAN_MOTION_DOT":2.8e-7,"MEAN_MOTION_DDOT":0},{"OBJECT_NAME":"HULIANWANG DIGUI-33","OBJECT_ID":"2025-121D","EPOCH":"2026-07-22T21:06:51.688224","CLASSIFICATION_TYPE":"U","MEAN_MOTION":13.24410175,"ECCENTRICITY":0.00019041,"INCLINATION":86.5024,"RA_OF_ASC_NODE":1.5741,"ARG_OF_PERICENTER":89.6956,"MEAN_ANOMALY":270.4397,"EPHEMERIS_TYPE":0,"NORAD_CAT_ID":64286,"ELEMENT_SET_NO":999,"REV_AT_EPOCH":5488,"BSTAR":0.000026792373,"MEAN_MOTION_DOT":2.6e-7,"MEAN_MOTION_DDOT":0},{"OBJECT_NAME":"HULIANWANG DIGUI-34","OBJECT_ID":"2025-121E","EPOCH":"2026-07-22T20:56:01.834080","CLASSIFICATION_TYPE":"U","MEAN_MOTION":13.24410885,"ECCENTRICITY":0.00020052,"INCLINATION":86.5002,"RA_OF_ASC_NODE":1.4785,"ARG_OF_PERICENTER":80.7641,"MEAN_ANOMALY":279.372,"EPHEMERIS_TYPE":0,"NORAD_CAT_ID":64287,"ELEMENT_SET_NO":999,"REV_AT_EPOCH":5488,"BSTAR":0.000052224792,"MEAN_MOTION_DOT":3.7e-7,"MEAN_MOTION_DDOT":0},{"OBJECT_NAME":"HULIANWANG DIGUI-35","OBJECT_ID":"2025-159A","EPOCH":"2026-07-22T21:50:38.937696","CLASSIFICATION_TYPE":"U","MEAN_MOTION":13.24413508,"ECCENTRICITY":0.00040772,"INCLINATION":86.4931,"RA_OF_ASC_NODE":270.3622,"ARG_OF_PERICENTER":51.319,"MEAN_ANOMALY":308.8308,"EPHEMERIS_TYPE":0,"NORAD_CAT_ID":64956,"ELEMENT_SET_NO":999,"REV_AT_EPOCH":4785,"BSTAR":0.000061601096,"MEAN_MOTION_DOT":4.1e-7,"MEAN_MOTION_DDOT":0},{"OBJECT_NAME":"HULIANWANG DIGUI-36","OBJECT_ID":"2025-159B","EPOCH":"2026-07-22T21:45:03.288384","CLASSIFICATION_TYPE":"U","MEAN_MOTION":13.24408962,"ECCENTRICITY":0.00016953,"INCLINATION":86.4951,"RA_OF_ASC_NODE":270.4307,"ARG_OF_PERICENTER":104.6871,"MEAN_ANOMALY":255.4451,"EPHEMERIS_TYPE":0,"NORAD_CAT_ID":64957,"ELEMENT_SET_NO":999,"REV_AT_EPOCH":4785,"BSTAR":0.000075021821,"MEAN_MOTION_DOT":4.7e-7,"MEAN_MOTION_DDOT":0},{"OBJECT_NAME":"HULIANWANG DIGUI-37","OBJECT_ID":"2025-159C","EPOCH":"2026-07-22T21:34:08.826528","CLASSIFICATION_TYPE":"U","MEAN_MOTION":13.2440969,"ECCENTRICITY":0.00017804,"INCLINATION":86.4892,"RA_OF_ASC_NODE":270.2163,"ARG_OF_PERICENTER":99.2664,"MEAN_ANOMALY":260.8671,"EPHEMERIS_TYPE":0,"NORAD_CAT_ID":64958,"ELEMENT_SET_NO":999,"REV_AT_EPOCH":4785,"BSTAR":0.000086197962,"MEAN_MOTION_DOT":5.2e-7,"MEAN_MOTION_DDOT":0},{"OBJECT_NAME":"HULIANWANG DIGUI-38","OBJECT_ID":"2025-159D","EPOCH":"2026-07-22T21:23:19.325760","CLASSIFICATION_TYPE":"U","MEAN_MOTION":13.24409358,"ECCENTRICITY":0.00018412,"INCLINATION":86.4951,"RA_OF_ASC_NODE":270.4236,"ARG_OF_PERICENTER":99.4141,"MEAN_ANOMALY":260.7202,"EPHEMERIS_TYPE":0,"NORAD_CAT_ID":64959,"ELEMENT_SET_NO":999,"REV_AT_EPOCH":4785,"BSTAR":0.000059451016,"MEAN_MOTION_DOT":4e-7,"MEAN_MOTION_DDOT":0},{"OBJECT_NAME":"HULIANWANG DIGUI-39","OBJECT_ID":"2025-159E","EPOCH":"2026-07-22T21:12:25.541280","CLASSIFICATION_TYPE":"U","MEAN_MOTION":13.24409221,"ECCENTRICITY":0.00018404,"INCLINATION":86.4926,"RA_OF_ASC_NODE":270.3334,"ARG_OF_PERICENTER":102.5598,"MEAN_ANOMALY":257.5742,"EPHEMERIS_TYPE":0,"NORAD_CAT_ID":64960,"ELEMENT_SET_NO":999,"REV_AT_EPOCH":4785,"BSTAR":0.000023598023,"MEAN_MOTION_DOT":2.5e-7,"MEAN_MOTION_DDOT":0},{"OBJECT_NAME":"HULIANWANG DIGUI-40","OBJECT_ID":"2025-162A","EPOCH":"2026-07-22T21:01:56.912160","CLASSIFICATION_TYPE":"U","MEAN_MOTION":13.29327676,"ECCENTRICITY":0.00002704,"INCLINATION":49.999,"RA_OF_ASC_NODE":137.9276,"ARG_OF_PERICENTER":0.3517,"MEAN_ANOMALY":359.7355,"EPHEMERIS_TYPE":0,"NORAD_CAT_ID":65043,"ELEMENT_SET_NO":999,"REV_AT_EPOCH":4809,"BSTAR":0.00007541814,"MEAN_MOTION_DOT":-8.9e-7,"MEAN_MOTION_DDOT":0},{"OBJECT_NAME":"HULIANWANG DIGUI-41","OBJECT_ID":"2025-162B","EPOCH":"2026-07-22T20:49:56.850240","CLASSIFICATION_TYPE":"U","MEAN_MOTION":13.29327281,"ECCENTRICITY":0.00002779,"INCLINATION":49.9999,"RA_OF_ASC_NODE":137.9122,"ARG_OF_PERICENTER":11.0842,"MEAN_ANOMALY":349.0037,"EPHEMERIS_TYPE":0,"NORAD_CAT_ID":65044,"ELEMENT_SET_NO":999,"REV_AT_EPOCH":4810,"BSTAR":0.000080629304,"MEAN_MOTION_DOT":-8.7e-7,"MEAN_MOTION_DDOT":0},{"OBJECT_NAME":"HULIANWANG DIGUI-42","OBJECT_ID":"2025-162C","EPOCH":"2026-07-22T20:37:49.020096","CLASSIFICATION_TYPE":"U","MEAN_MOTION":13.29327966,"ECCENTRICITY":0.0000275,"INCLINATION":49.9965,"RA_OF_ASC_NODE":137.7702,"ARG_OF_PERICENTER":1.6327,"MEAN_ANOMALY":358.4546,"EPHEMERIS_TYPE":0,"NORAD_CAT_ID":65045,"ELEMENT_SET_NO":999,"REV_AT_EPOCH":4810,"BSTAR":0.000081866821,"MEAN_MOTION_DOT":-8.6e-7,"MEAN_MOTION_DDOT":0},{"OBJECT_NAME":"HULIANWANG DIGUI-43","OBJECT_ID":"2025-162D","EPOCH":"2026-07-22T20:25:51.237408","CLASSIFICATION_TYPE":"U","MEAN_MOTION":13.29326572,"ECCENTRICITY":0.00003124,"INCLINATION":49.9982,"RA_OF_ASC_NODE":137.7769,"ARG_OF_PERICENTER":355.1437,"MEAN_ANOMALY":4.9432,"EPHEMERIS_TYPE":0,"NORAD_CAT_ID":65046,"ELEMENT_SET_NO":999,"REV_AT_EPOCH":4810,"BSTAR":0.00008304739,"MEAN_MOTION_DOT":-8.5e-7,"MEAN_MOTION_DDOT":0}]}
