{"epoch":1784799577,"count":18318,"objects":[{"id":"63695","name":"HULIANWANG DIGUI-28","type":"PAYLOAD","l1":"1 63695U 25086J   26203.90259147  .00000057  00000-0  98807-4 0  9998","l2":"2 63695  86.5019 300.8998 0002216 109.1257 251.0118 13.24411374 59588"},{"id":"63696","name":"HULIANWANG DIGUI-29","type":"PAYLOAD","l1":"1 63696U 25086K   26203.89506848  .00000040  00000-0  60166-4 0  9999","l2":"2 63696  86.5046 301.0200 0002103 112.0804 248.0553 13.24411717 59584"},{"id":"64283","name":"HULIANWANG DIGUI-30","type":"PAYLOAD","l1":"1 64283U 25121A   26203.90251796  .00000040  00000-0  58683-4 0  9994","l2":"2 64283  86.5004   1.5049 0001880  89.3263 270.8086 13.24409727 54880"},{"id":"64284","name":"HULIANWANG DIGUI-31","type":"PAYLOAD","l1":"1 64284U 25121B   26203.89498646  .00000025  00000-0  24806-4 0  9993","l2":"2 64284  86.5025   1.5856 0001883  89.4903 270.6447 13.24414665 54881"},{"id":"64285","name":"HULIANWANG DIGUI-32","type":"PAYLOAD","l1":"1 64285U 25121C   26203.88731163  .00000028  00000-0  30546-4 0  9998","l2":"2 64285  86.4966   1.3386 0001891  93.8980 266.2370 13.24410583 54885"},{"id":"64286","name":"HULIANWANG DIGUI-33","type":"PAYLOAD","l1":"1 64286U 25121D   26203.87976491  .00000026  00000-0  26792-4 0  9999","l2":"2 64286  86.5024   1.5741 0001904  89.6956 270.4397 13.24410175 54883"},{"id":"64287","name":"HULIANWANG DIGUI-34","type":"PAYLOAD","l1":"1 64287U 25121E   26203.87224345  .00000037  00000-0  52225-4 0  9996","l2":"2 64287  86.5002   1.4785 0002005  80.7641 279.3720 13.24410885 54889"},{"id":"64956","name":"HULIANWANG DIGUI-35","type":"PAYLOAD","l1":"1 64956U 25159A   26203.91017289  .00000041  00000-0  61601-4 0  9995","l2":"2 64956  86.4931 270.3622 0004077  51.3190 308.8308 13.24413508 47857"},{"id":"64957","name":"HULIANWANG DIGUI-36","type":"PAYLOAD","l1":"1 64957U 25159B   26203.90628806  .00000047  00000-0  75022-4 0  9996","l2":"2 64957  86.4951 270.4307 0001695 104.6871 255.4451 13.24408962 47856"},{"id":"64958","name":"HULIANWANG DIGUI-37","type":"PAYLOAD","l1":"1 64958U 25159C   26203.89871327  .00000052  00000-0  86198-4 0  9995","l2":"2 64958  86.4892 270.2163 0001780  99.2664 260.8671 13.24409690 47856"},{"id":"64959","name":"HULIANWANG DIGUI-38","type":"PAYLOAD","l1":"1 64959U 25159D   26203.89119590  .00000040  00000-0  59451-4 0  9992","l2":"2 64959  86.4951 270.4236 0001841  99.4141 260.7202 13.24409358 47856"},{"id":"64960","name":"HULIANWANG DIGUI-39","type":"PAYLOAD","l1":"1 64960U 25159E   26203.88362895  .00000025  00000-0  23598-4 0  9997","l2":"2 64960  86.4926 270.3334 0001840 102.5598 257.5742 13.24409221 47851"},{"id":"65043","name":"HULIANWANG DIGUI-40","type":"PAYLOAD","l1":"1 65043U 25162A   26203.87635315 -.00000089  00000-0  75418-4 0  9992","l2":"2 65043  49.9990 137.9276 0000270   0.3517 359.7355 13.29327676 48094"},{"id":"65044","name":"HULIANWANG DIGUI-41","type":"PAYLOAD","l1":"1 65044U 25162B   26203.86801910 -.00000087  00000-0  80629-4 0  9996","l2":"2 65044  49.9999 137.9122 0000278  11.0842 349.0037 13.29327281 48105"},{"id":"65045","name":"HULIANWANG DIGUI-42","type":"PAYLOAD","l1":"1 65045U 25162C   26203.85959514 -.00000086  00000-0  81867-4 0  9994","l2":"2 65045  49.9965 137.7702 0000275   1.6327 358.4546 13.29327966 48100"},{"id":"65046","name":"HULIANWANG DIGUI-43","type":"PAYLOAD","l1":"1 65046U 25162D   26203.85128747 -.00000085  00000-0  83047-4 0  9992","l2":"2 65046  49.9982 137.7769 0000312 355.1437   4.9432 13.29326572 48103"}]}